STARLINK-2323
1 27868C 21021J   21325.14531186 -.00014813  00000-0 -99251-3 0  3252
2 27868  53.0539  57.5662 0001836  46.7460   5.5288 15.06412004    18
